[
  {
    "OBJECT_NAME": "GAOFEN-1",
    "OBJECT_ID": "2013-018A",
    "EPOCH": "2025-05-24T21:19:19.399872",
    "MEAN_MOTION": 14.76500808,
    "ECCENTRICITY": 0.0019132,
    "INCLINATION": 97.9501,
    "RA_OF_ASC_NODE": 218.8484,
    "ARG_OF_PERICENTER": 77.8348,
    "MEAN_ANOMALY": 282.5003,
    "EPHEMERIS_TYPE": 0,
    "CLASSIFICATION_TYPE": "U",
    "NORAD_CAT_ID": 39150,
    "ELEMENT_SET_NO": 999,
    "REV_AT_EPOCH": 65098,
    "BSTAR": 9.6005e-05,
    "MEAN_MOTION_DOT": 6.19e-06,
    "MEAN_MOTION_DDOT": 0
  },
  {
    "OBJECT_NAME": "VNREDSAT 1",
    "OBJECT_ID": "2013-021B",
    "EPOCH": "2025-05-24T20:32:23.840736",
    "MEAN_MOTION": 14.64904972,
    "ECCENTRICITY": 0.0001272,
    "INCLINATION": 97.95,
    "RA_OF_ASC_NODE": 207.017,
    "ARG_OF_PERICENTER": 94.4194,
    "MEAN_ANOMALY": 265.7155,
    "EPHEMERIS_TYPE": 0,
    "CLASSIFICATION_TYPE": "U",
    "NORAD_CAT_ID": 39160,
    "ELEMENT_SET_NO": 999,
    "REV_AT_EPOCH": 64345,
    "BSTAR": 0.00011302,
    "MEAN_MOTION_DOT": 5.59e-06,
    "MEAN_MOTION_DDOT": 0
  },
  {
    "OBJECT_NAME": "ARIRANG-5 (KOMPSAT-5)",
    "OBJECT_ID": "2013-042A",
    "EPOCH": "2025-05-24T19:45:59.687136",
    "MEAN_MOTION": 15.04522214,
    "ECCENTRICITY": 0.0003468,
    "INCLINATION": 97.6193,
    "RA_OF_ASC_NODE": 331.9502,
    "ARG_OF_PERICENTER": 52.027,
    "MEAN_ANOMALY": 308.1269,
    "EPHEMERIS_TYPE": 0,
    "CLASSIFICATION_TYPE": "U",
    "NORAD_CAT_ID": 39227,
    "ELEMENT_SET_NO": 999,
    "REV_AT_EPOCH": 64552,
    "BSTAR": 6.8975e-05,
    "MEAN_MOTION_DOT": 9.05e-06,
    "MEAN_MOTION_DDOT": 0
  },
  {
    "OBJECT_NAME": "SKYSAT-A",
    "OBJECT_ID": "2013-066C",
    "EPOCH": "2025-05-24T05:56:10.557888",
    "MEAN_MOTION": 15.09908725,
    "ECCENTRICITY": 0.0022099,
    "INCLINATION": 97.4355,
    "RA_OF_ASC_NODE": 200.4917,
    "ARG_OF_PERICENTER": 212.6637,
    "MEAN_ANOMALY": 147.3227,
    "EPHEMERIS_TYPE": 0,
    "CLASSIFICATION_TYPE": "U",
    "NORAD_CAT_ID": 39418,
    "ELEMENT_SET_NO": 999,
    "REV_AT_EPOCH": 62973,
    "BSTAR": 0.00017867,
    "MEAN_MOTION_DOT": 2.848e-05,
    "MEAN_MOTION_DDOT": 0
  },
  {
    "OBJECT_NAME": "DUBAISAT-2",
    "OBJECT_ID": "2013-066D",
    "EPOCH": "2025-05-24T19:30:52.303968",
    "MEAN_MOTION": 15.06247522,
    "ECCENTRICITY": 0.0010508,
    "INCLINATION": 97.4315,
    "RA_OF_ASC_NODE": 141.9382,
    "ARG_OF_PERICENTER": 287.7606,
    "MEAN_ANOMALY": 72.2475,
    "EPHEMERIS_TYPE": 0,
    "CLASSIFICATION_TYPE": "U",
    "NORAD_CAT_ID": 39419,
    "ELEMENT_SET_NO": 999,
    "REV_AT_EPOCH": 62785,
    "BSTAR": 0.00027085,
    "MEAN_MOTION_DOT": 3.918e-05,
    "MEAN_MOTION_DDOT": 0
  },
  {
    "OBJECT_NAME": "GPM-CORE",
    "OBJECT_ID": "2014-009C",
    "EPOCH": "2025-05-24T13:51:58.572000",
    "MEAN_MOTION": 15.44951921,
    "ECCENTRICITY": 0.0013601,
    "INCLINATION": 64.9751,
    "RA_OF_ASC_NODE": 169.8642,
    "ARG_OF_PERICENTER": 266.897,
    "MEAN_ANOMALY": 93.0614,
    "EPHEMERIS_TYPE": 0,
    "CLASSIFICATION_TYPE": "U",
    "NORAD_CAT_ID": 39574,
    "ELEMENT_SET_NO": 999,
    "REV_AT_EPOCH": 63778,
    "BSTAR": 0.00013116,
    "MEAN_MOTION_DOT": 5.972e-05,
    "MEAN_MOTION_DDOT": 0
  },
  {
    "OBJECT_NAME": "SENTINEL-1A",
    "OBJECT_ID": "2014-016A",
    "EPOCH": "2025-05-24T20:12:22.948128",
    "MEAN_MOTION": 14.59199371,
    "ECCENTRICITY": 0.000137,
    "INCLINATION": 98.1794,
    "RA_OF_ASC_NODE": 153.0046,
    "ARG_OF_PERICENTER": 89.0865,
    "MEAN_ANOMALY": 271.0491,
    "EPHEMERIS_TYPE": 0,
    "CLASSIFICATION_TYPE": "U",
    "NORAD_CAT_ID": 39634,
    "ELEMENT_SET_NO": 999,
    "REV_AT_EPOCH": 59341,
    "BSTAR": 2.8667e-05,
    "MEAN_MOTION_DOT": 8.9e-07,
    "MEAN_MOTION_DDOT": 0
  },
  {
    "OBJECT_NAME": "KAZEOSAT 1",
    "OBJECT_ID": "2014-024A",
    "EPOCH": "2025-05-24T19:20:51.852480",
    "MEAN_MOTION": 14.42044691,
    "ECCENTRICITY": 0.0001222,
    "INCLINATION": 98.3596,
    "RA_OF_ASC_NODE": 221.0089,
    "ARG_OF_PERICENTER": 97.96,
    "MEAN_ANOMALY": 262.1729,
    "EPHEMERIS_TYPE": 0,
    "CLASSIFICATION_TYPE": "U",
    "NORAD_CAT_ID": 39731,
    "ELEMENT_SET_NO": 999,
    "REV_AT_EPOCH": 58263,
    "BSTAR": 6.4e-05,
    "MEAN_MOTION_DOT": 1.67e-06,
    "MEAN_MOTION_DDOT": 0
  },
  {
    "OBJECT_NAME": "ALOS-2",
    "OBJECT_ID": "2014-029A",
    "EPOCH": "2025-05-24T20:36:55.676736",
    "MEAN_MOTION": 14.79472739,
    "ECCENTRICITY": 0.0001621,
    "INCLINATION": 97.9229,
    "RA_OF_ASC_NODE": 242.5959,
    "ARG_OF_PERICENTER": 96.8046,
    "MEAN_ANOMALY": 263.335,
    "EPHEMERIS_TYPE": 0,
    "CLASSIFICATION_TYPE": "U",
    "NORAD_CAT_ID": 39766,
    "ELEMENT_SET_NO": 999,
    "REV_AT_EPOCH": 59419,
    "BSTAR": 0.00019535,
    "MEAN_MOTION_DOT": 1.408e-05,
    "MEAN_MOTION_DDOT": 0
  },
  {
    "OBJECT_NAME": "KAZEOSAT 2",
    "OBJECT_ID": "2014-033A",
    "EPOCH": "2025-05-24T20:59:02.570784",
    "MEAN_MOTION": 14.84631706,
    "ECCENTRICITY": 0.0009718,
    "INCLINATION": 97.5756,
    "RA_OF_ASC_NODE": 359.3883,
    "ARG_OF_PERICENTER": 153.3704,
    "MEAN_ANOMALY": 206.8012,
    "EPHEMERIS_TYPE": 0,
    "CLASSIFICATION_TYPE": "U",
    "NORAD_CAT_ID": 40010,
    "ELEMENT_SET_NO": 999,
    "REV_AT_EPOCH": 59133,
    "BSTAR": 6.3645e-05,
    "MEAN_MOTION_DOT": 4.88e-06,
    "MEAN_MOTION_DDOT": 0
  },
  {
    "OBJECT_NAME": "HODOYOSHI-4",
    "OBJECT_ID": "2014-033B",
    "EPOCH": "2025-05-24T19:20:59.113536",
    "MEAN_MOTION": 14.86698457,
    "ECCENTRICITY": 0.002499,
    "INCLINATION": 97.5539,
    "RA_OF_ASC_NODE": 343.6442,
    "ARG_OF_PERICENTER": 148.9863,
    "MEAN_ANOMALY": 211.2835,
    "EPHEMERIS_TYPE": 0,
    "CLASSIFICATION_TYPE": "U",
    "NORAD_CAT_ID": 40011,
    "ELEMENT_SET_NO": 999,
    "REV_AT_EPOCH": 59108,
    "BSTAR": 0.00015045,
    "MEAN_MOTION_DOT": 1.293e-05,
    "MEAN_MOTION_DDOT": 0
  },
  {
    "OBJECT_NAME": "DEIMOS-2",
    "OBJECT_ID": "2014-033D",
    "EPOCH": "2025-05-24T21:36:36.561888",
    "MEAN_MOTION": 14.9199737,
    "ECCENTRICITY": 0.0001772,
    "INCLINATION": 97.6362,
    "RA_OF_ASC_NODE": 27.1926,
    "ARG_OF_PERICENTER": 110.9573,
    "MEAN_ANOMALY": 249.1836,
    "EPHEMERIS_TYPE": 0,
    "CLASSIFICATION_TYPE": "U",
    "NORAD_CAT_ID": 40013,
    "ELEMENT_SET_NO": 999,
    "REV_AT_EPOCH": 59266,
    "BSTAR": 0.00015616,
    "MEAN_MOTION_DOT": 1.528e-05,
    "MEAN_MOTION_DDOT": 0
  },
  {
    "OBJECT_NAME": "HODOYOSHI-3",
    "OBJECT_ID": "2014-033F",
    "EPOCH": "2025-05-24T10:50:46.281984",
    "MEAN_MOTION": 14.83955704,
    "ECCENTRICITY": 0.0033422,
    "INCLINATION": 97.6086,
    "RA_OF_ASC_NODE": 319.3973,
    "ARG_OF_PERICENTER": 191.9746,
    "MEAN_ANOMALY": 168.0678,
    "EPHEMERIS_TYPE": 0,
    "CLASSIFICATION_TYPE": "U",
    "NORAD_CAT_ID": 40015,
    "ELEMENT_SET_NO": 999,
    "REV_AT_EPOCH": 58994,
    "BSTAR": 0.00018119,
    "MEAN_MOTION_DOT": 1.469e-05,
    "MEAN_MOTION_DDOT": 0
  },
  {
    "OBJECT_NAME": "SPOT 7",
    "OBJECT_ID": "2014-034A",
    "EPOCH": "2025-05-24T20:24:30.461184",
    "MEAN_MOTION": 14.60439931,
    "ECCENTRICITY": 0.0001413,
    "INCLINATION": 98.1125,
    "RA_OF_ASC_NODE": 211.3008,
    "ARG_OF_PERICENTER": 83.5599,
    "MEAN_ANOMALY": 276.5763,
    "EPHEMERIS_TYPE": 0,
    "CLASSIFICATION_TYPE": "U",
    "NORAD_CAT_ID": 40053,
    "ELEMENT_SET_NO": 999,
    "REV_AT_EPOCH": 58046,
    "BSTAR": 9.8501e-05,
    "MEAN_MOTION_DOT": 4.32e-06,
    "MEAN_MOTION_DDOT": 0
  }
]