GAOFEN-1                
1 39150U 13018A   25144.88841898  .00000619  00000+0  96005-4 0  9990
2 39150  97.9501 218.8484 0019132  77.8348 282.5003 14.76500808650986
VNREDSAT 1              
1 39160U 13021B   25144.85583149  .00000559  00000+0  11302-3 0  9993
2 39160  97.9500 207.0170 0001272  94.4194 265.7155 14.64904972643450
ARIRANG-5 (KOMPSAT-5)   
1 39227U 13042A   25144.82360749  .00000905  00000+0  68975-4 0  9990
2 39227  97.6193 331.9502 0003468  52.0270 308.1269 15.04522214645527
SKYSAT-A                
1 39418U 13066C   25144.24734442  .00002848  00000+0  17867-3 0  9990
2 39418  97.4355 200.4917 0022099 212.6637 147.3227 15.09908725629731
DUBAISAT-2              
1 39419U 13066D   25144.81310537  .00003918  00000+0  27085-3 0  9991
2 39419  97.4315 141.9382 0010508 287.7606  72.2475 15.06247522627854
GPM-CORE                
1 39574U 14009C   25144.57776125  .00005972  00000+0  13116-3 0  9995
2 39574  64.9751 169.8642 0013601 266.8970  93.0614 15.44951921637782
SENTINEL-1A             
1 39634U 14016A   25144.84193227  .00000089  00000+0  28667-4 0  9998
2 39634  98.1794 153.0046 0001370  89.0865 271.0491 14.59199371593416
KAZEOSAT 1              
1 39731U 14024A   25144.80615570  .00000167  00000+0  64000-4 0  9999
2 39731  98.3596 221.0089 0001222  97.9600 262.1729 14.42044691582633
ALOS-2                  
1 39766U 14029A   25144.85897774  .00001408  00000+0  19535-3 0  9996
2 39766  97.9229 242.5959 0001621  96.8046 263.3350 14.79472739594193
KAZEOSAT 2              
1 40010U 14033A   25144.87433531  .00000488  00000+0  63645-4 0  9993
2 40010  97.5756 359.3883 0009718 153.3704 206.8012 14.84631706591333
HODOYOSHI-4             
1 40011U 14033B   25144.80623974  .00001293  00000+0  15045-3 0  9994
2 40011  97.5539 343.6442 0024990 148.9863 211.2835 14.86698457591088
DEIMOS-2                
1 40013U 14033D   25144.90042317  .00001528  00000+0  15616-3 0  9998
2 40013  97.6362  27.1926 0001772 110.9573 249.1836 14.91997370592664
HODOYOSHI-3             
1 40015U 14033F   25144.45192456  .00001469  00000+0  18119-3 0  9995
2 40015  97.6086 319.3973 0033422 191.9746 168.0678 14.83955704589941
SPOT 7                  
1 40053U 14034A   25144.85035256  .00000432  00000+0  98501-4 0  9999
2 40053  98.1125 211.3008 0001413  83.5599 276.5763 14.60439931580462
